{
 "type": "FeatureCollection",
 "features": [
  {
   "type": "Feature",
   "geometry": {
    "type": "Polygon",
    "coordinates": [
     [
      [
       90.32994833617852,
       23.7502363535304
      ],
      [
       90.33036164727446,
       23.752178065901347
      ],
      [
       90.33757460544432,
       23.76003806277132
      ],
      [
       90.33956131788307,
       23.76499338151745
      ],
      [
       90.34419200053823,
       23.768717987712687
      ],
      [
       90.34422972624536,
       23.77018347920504
      ],
      [
       90.34264676331922,
       23.772266955459596
      ],
      [
       90.33450110024313,
       23.77488348417564
      ],
      [
       90.33801007664361,
       23.779074436133556
      ],
      [
       90.33560804417984,
       23.783023719615322
      ],
      [
       90.33835673469915,
       23.78645278875749
      ],
      [
       90.33978747151603,
       23.790649460209337
      ],
      [
       90.33960580717456,
       23.79762781269215
      ],
      [
       90.34191278139619,
       23.798547232051547
      ],
      [
       90.3433782680953,
       23.801365839878954
      ],
      [
       90.34281690822853,
       23.805059591158585
      ],
      [
       90.34007447001375,
       23.808404604233107
      ],
      [
       90.33962548886473,
       23.811216922225753
      ],
      [
       90.34106460552356,
       23.8173514865013
      ],
      [
       90.34021287182897,
       23.818446236331933
      ],
      [
       90.33709171555518,
       23.818757057759967
      ],
      [
       90.3364061053683,
       23.82044358261509
      ],
      [
       90.34266716617002,
       23.826948812029674
      ],
      [
       90.33738181814624,
       23.830907863598547
      ],
      [
       90.33890820557683,
       23.834254772277838
      ],
      [
       90.33808698133008,
       23.837651119019228
      ],
      [
       90.34159366572074,
       23.841532096626846
      ],
      [
       90.33724239597353,
       23.846876603128734
      ],
      [
       90.33942330009886,
       23.849804842438616
      ],
      [
       90.3398387137571,
       23.852553335290406
      ],
      [
       90.34650923978126,
       23.85904240380163
      ],
      [
       90.35085276849472,
       23.86567429752313
      ],
      [
       90.35053256860306,
       23.876408330631378
      ],
      [
       90.35820027336753,
       23.88229152794633
      ],
      [
       90.3587198993998,
       23.88406515187809
      ],
      [
       90.3576020015449,
       23.888773536675583
      ],
      [
       90.36044705907007,
       23.89311749688234
      ],
      [
       90.36666515489317,
       23.894172442415595
      ],
      [
       90.37076425041472,
       23.895903845823884
      ],
      [
       90.37367302290272,
       23.89522764556249
      ],
      [
       90.38011349860847,
       23.89911282729354
      ],
      [
       90.38477610607575,
       23.898144359440266
      ],
      [
       90.39184639901985,
       23.889451052455325
      ],
      [
       90.39227604460076,
       23.88355627934611
      ],
      [
       90.39429602696492,
       23.88060868367041
      ],
      [
       90.41261593570637,
       23.883036658798197
      ],
      [
       90.41659127794513,
       23.885879660086655
      ],
      [
       90.42214685298056,
       23.887790569168295
      ],
      [
       90.42611327685243,
       23.8917989483118
      ],
      [
       90.43795739326693,
       23.899873259120596
      ],
      [
       90.44583804886457,
       23.898161680678626
      ],
      [
       90.45255875110668,
       23.894989263716766
      ],
      [
       90.4576752598298,
       23.894699792005234
      ],
      [
       90.45991071175607,
       23.89146803049887
      ],
      [
       90.46012821355042,
       23.887150985641295
      ],
      [
       90.45886898569043,
       23.884845979596868
      ],
      [
       90.46105937658584,
       23.88339135622437
      ],
      [
       90.460790020842,
       23.88137405202346
      ],
      [
       90.46420193004505,
       23.87454726692662
      ],
      [
       90.47178596322586,
       23.867122237766957
      ],
      [
       90.4709674183177,
       23.857832640541005
      ],
      [
       90.4664415676409,
       23.854574689637605
      ],
      [
       90.46516697459812,
       23.852178290993223
      ],
      [
       90.46378410896801,
       23.847555001148365
      ],
      [
       90.46482365843781,
       23.84426091224815
      ],
      [
       90.46604697007841,
       23.84377128875376
      ],
      [
       90.46996610115905,
       23.84690548492418
      ],
      [
       90.47244236879168,
       23.84698922034008
      ],
      [
       90.4727040592511,
       23.842733989626648
      ],
      [
       90.47709797856514,
       23.837493378528876
      ],
      [
       90.47852384628324,
       23.8342141816112
      ],
      [
       90.48233692381763,
       23.831106328715865
      ],
      [
       90.48647986405672,
       23.83198464812171
      ],
      [
       90.48815862315641,
       23.82621522687784
      ],
      [
       90.4842265712337,
       23.809842929303723
      ],
      [
       90.48519321455204,
       23.806495672747882
      ],
      [
       90.48213638358412,
       23.801439713366367
      ],
      [
       90.48097438843162,
       23.794541904185962
      ],
      [
       90.4795664018003,
       23.79132678787021
      ],
      [
       90.47077082951222,
       23.784828970488395
      ],
      [
       90.4713191217117,
       23.781671661760583
      ],
      [
       90.47372916967439,
       23.778651932017926
      ],
      [
       90.47747704951698,
       23.77808966807031
      ],
      [
       90.48326435763981,
       23.77040247328368
      ],
      [
       90.48227777658097,
       23.766973662233763
      ],
      [
       90.48373116729984,
       23.757820985986736
      ],
      [
       90.48854415234673,
       23.75508233103154
      ],
      [
       90.48552015482399,
       23.749778814257656
      ],
      [
       90.49073855294789,
       23.744519957409686
      ],
      [
       90.49420522686525,
       23.744105475322158
      ],
      [
       90.49183449424609,
       23.735803200237463
      ],
      [
       90.49262032422307,
       23.73332231436263
      ],
      [
       90.4958984427153,
       23.732861647664738
      ],
      [
       90.50048133564587,
       23.728422813151745
      ],
      [
       90.49901234283263,
       23.723683196086316
      ],
      [
       90.49928437458333,
       23.719390814203358
      ],
      [
       90.5006136112197,
       23.716940334867836
      ],
      [
       90.50293363074562,
       23.714890085032263
      ],
      [
       90.50965278047488,
       23.71188996587259
      ],
      [
       90.51256693495033,
       23.709178427580525
      ],
      [
       90.515073177548,
       23.70492686990881
      ],
      [
       90.5204283719442,
       23.700463619928936
      ],
      [
       90.52577756542283,
       23.686739591786708
      ],
      [
       90.53065715765001,
       23.679755294773905
      ],
      [
       90.53140147117304,
       23.676935043693746
      ],
      [
       90.53105533919094,
       23.671844042929177
      ],
      [
       90.52366579807992,
       23.665499936867633
      ],
      [
       90.52019735845076,
       23.657467050667
      ],
      [
       90.51838055609973,
       23.636050696058593
      ],
      [
       90.51356793882644,
       23.6270642461224
      ],
      [
       90.50929183969431,
       23.62168772725651
      ],
      [
       90.50708117853547,
       23.615110798134683
      ],
      [
       90.5070690487902,
       23.603799181402707
      ],
      [
       90.5090975287789,
       23.59129432192049
      ],
      [
       90.51406671368217,
       23.582541916599137
      ],
      [
       90.5213347415387,
       23.575063692960946
      ],
      [
       90.51779810211431,
       23.574864975221924
      ],
      [
       90.51512105514938,
       23.57347810504418
      ],
      [
       90.50044087690908,
       23.57365413303361
      ],
      [
       90.49375936255964,
       23.57592478971863
      ],
      [
       90.49138135955604,
       23.574885257735378
      ],
      [
       90.4910923740371,
       23.57034527244443
      ],
      [
       90.48690696908768,
       23.567026740482646
      ],
      [
       90.48261669081637,
       23.566841789305112
      ],
      [
       90.47897552836206,
       23.567969957535258
      ],
      [
       90.47460544178166,
       23.562412633762296
      ],
      [
       90.4668253969932,
       23.55501114405481
      ],
      [
       90.45903842522118,
       23.55213843164491
      ],
      [
       90.45364752639253,
       23.54578471014894
      ],
      [
       90.4504283258955,
       23.54586666927804
      ],
      [
       90.44344774603042,
       23.548899270785327
      ],
      [
       90.44133455759183,
       23.55312367750243
      ],
      [
       90.442194621398,
       23.55811134742008
      ],
      [
       90.44009843719131,
       23.559328686597063
      ],
      [
       90.43658929226768,
       23.564619599078267
      ],
      [
       90.43366897839697,
       23.574911175719173
      ],
      [
       90.43420720379045,
       23.593681498056792
      ],
      [
       90.4339003519815,
       23.600131818977037
      ],
      [
       90.43179033305711,
       23.608417764255698
      ],
      [
       90.4322111344401,
       23.614029770417382
      ],
      [
       90.4445861343322,
       23.62767515912851
      ],
      [
       90.45056835993833,
       23.631092345805808
      ],
      [
       90.45924441992929,
       23.631468884448182
      ],
      [
       90.46866157247494,
       23.634033092306115
      ],
      [
       90.47096659964343,
       23.636001050704543
      ],
      [
       90.47177927190224,
       23.64015382190312
      ],
      [
       90.46731261226235,
       23.647382331884767
      ],
      [
       90.46353991942252,
       23.650561413744864
      ],
      [
       90.44506524937213,
       23.672926539149888
      ],
      [
       90.42808373086866,
       23.687059559086464
      ],
      [
       90.41606581859908,
       23.70026179772872
      ],
      [
       90.39861403416197,
       23.71073494408526
      ],
      [
       90.39189949747845,
       23.710666536735328
      ],
      [
       90.38758926962333,
       23.708948626315568
      ],
      [
       90.38183274222807,
       23.708207653257627
      ],
      [
       90.37065320688845,
       23.707654508075038
      ],
      [
       90.36379078130292,
       23.710115077602435
      ],
      [
       90.36063704102065,
       23.714215982986854
      ],
      [
       90.35819134804584,
       23.725918058671002
      ],
      [
       90.35222657747384,
       23.739032964144002
      ],
      [
       90.3410244120796,
       23.748639433527917
      ],
      [
       90.33823472113106,
       23.74951859908955
      ],
      [
       90.33332465092525,
       23.749016408318155
      ],
      [
       90.32994833617852,
       23.7502363535304
      ]
     ]
    ]
   },
   "properties": {
    "id": "service-area",
    "name": "Area with published schedules",
    "level": "service-area",
    "utilities": [
     "DESCO",
     "DPDC"
    ],
    "status": "estimated",
    "confidence": "low",
    "method": "The DESCO and DPDC service territories dissolved into one ring. Those territories are themselves constructed - a Voronoi split of the zone office names each utility prints on its own schedules, clipped to the Dhaka Metropolitan administrative area - so this edge is an estimate of an estimate. It marks where we have schedules to show, not a boundary anyone publishes."
   }
  }
 ]
}
